CCSDS_OMM_VERS = 2.0
CREATION_DATE  = 
ORIGINATOR     = 

OBJECT_NAME    = ALOS-2
OBJECT_ID      = 2014-029A
CENTER_NAME    = EARTH
REF_FRAME      = TEME
TIME_SYSTEM    = UTC
MEAN_ELEMENT_THEORY = SGP/SGP4

EPOCH          = 2026-04-02T01:15:00.956160
MEAN_MOTION    = 14.79465602
ECCENTRICITY   = .00019738
INCLINATION    = 97.9196
RA_OF_ASC_NODE = 190.3096
ARG_OF_PERICENTER = 99.9401
MEAN_ANOMALY   = 260.2034

EPHEMERIS_TYPE = 0
CLASSIFICATION_TYPE = U
NORAD_CAT_ID   = 39766
ELEMENT_SET_NO = 999
REV_AT_EPOCH   = 64032
BSTAR          = .25604263E-3
MEAN_MOTION_DOT = .1861E-4
MEAN_MOTION_DDOT = 0

CCSDS_OMM_VERS = 2.0
CREATION_DATE  = 
ORIGINATOR     = 

OBJECT_NAME    = YAOGAN-29
OBJECT_ID      = 2015-069A
CENTER_NAME    = EARTH
REF_FRAME      = TEME
TIME_SYSTEM    = UTC
MEAN_ELEMENT_THEORY = SGP/SGP4

EPOCH          = 2026-04-02T19:32:40.035264
MEAN_MOTION    = 14.83019656
ECCENTRICITY   = .0000063
INCLINATION    = 98.0105
RA_OF_ASC_NODE = 121.3048
ARG_OF_PERICENTER = 327.2643
MEAN_ANOMALY   = 32.8566

EPHEMERIS_TYPE = 0
CLASSIFICATION_TYPE = U
NORAD_CAT_ID   = 41038
ELEMENT_SET_NO = 999
REV_AT_EPOCH   = 55945
BSTAR          = .60846E-5
MEAN_MOTION_DOT = -.5E-7
MEAN_MOTION_DDOT = 0

CCSDS_OMM_VERS = 2.0
CREATION_DATE  = 
ORIGINATOR     = 

OBJECT_NAME    = ASTRO-H (HITOMI)
OBJECT_ID      = 2016-012A
CENTER_NAME    = EARTH
REF_FRAME      = TEME
TIME_SYSTEM    = UTC
MEAN_ELEMENT_THEORY = SGP/SGP4

EPOCH          = 2026-04-02T15:04:30.852768
MEAN_MOTION    = 15.10160383
ECCENTRICITY   = .00096742
INCLINATION    = 30.9993
RA_OF_ASC_NODE = 202.0484
ARG_OF_PERICENTER = 212.6611
MEAN_ANOMALY   = 147.3429

EPHEMERIS_TYPE = 0
CLASSIFICATION_TYPE = U
NORAD_CAT_ID   = 41337
ELEMENT_SET_NO = 999
REV_AT_EPOCH   = 55585
BSTAR          = .21405063E-3
MEAN_MOTION_DOT = .3678E-4
MEAN_MOTION_DDOT = 0

CCSDS_OMM_VERS = 2.0
CREATION_DATE  = 
ORIGINATOR     = 

OBJECT_NAME    = HXMT (HUIYAN)
OBJECT_ID      = 2017-034A
CENTER_NAME    = EARTH
REF_FRAME      = TEME
TIME_SYSTEM    = UTC
MEAN_ELEMENT_THEORY = SGP/SGP4

EPOCH          = 2026-04-02T19:12:49.662720
MEAN_MOTION    = 15.17776820
ECCENTRICITY   = .0031175
INCLINATION    = 43.0136
RA_OF_ASC_NODE = 242.5934
ARG_OF_PERICENTER = 25.0696
MEAN_ANOMALY   = 335.1659

EPHEMERIS_TYPE = 0
CLASSIFICATION_TYPE = U
NORAD_CAT_ID   = 42758
ELEMENT_SET_NO = 999
REV_AT_EPOCH   = 48620
BSTAR          = .43858E-3
MEAN_MOTION_DOT = .8903E-4
MEAN_MOTION_DDOT = 0

CCSDS_OMM_VERS = 2.0
CREATION_DATE  = 
ORIGINATOR     = 

OBJECT_NAME    = SAOCOM 1A
OBJECT_ID      = 2018-076A
CENTER_NAME    = EARTH
REF_FRAME      = TEME
TIME_SYSTEM    = UTC
MEAN_ELEMENT_THEORY = SGP/SGP4

EPOCH          = 2026-04-02T19:03:43.988832
MEAN_MOTION    = 14.82144488
ECCENTRICITY   = .000134
INCLINATION    = 97.8898
RA_OF_ASC_NODE = 280.6268
ARG_OF_PERICENTER = 86.1478
MEAN_ANOMALY   = 273.9889

EPHEMERIS_TYPE = 0
CLASSIFICATION_TYPE = U
NORAD_CAT_ID   = 43641
ELEMENT_SET_NO = 999
REV_AT_EPOCH   = 40493
BSTAR          = -.14137E-4
MEAN_MOTION_DOT = -.165E-5
MEAN_MOTION_DDOT = 0

CCSDS_OMM_VERS = 2.0
CREATION_DATE  = 
ORIGINATOR     = 

OBJECT_NAME    = H-2A R/B
OBJECT_ID      = 2018-084L
CENTER_NAME    = EARTH
REF_FRAME      = TEME
TIME_SYSTEM    = UTC
MEAN_ELEMENT_THEORY = SGP/SGP4

EPOCH          = 2026-04-02T13:12:17.180640
MEAN_MOTION    = 15.42391885
ECCENTRICITY   = .00234512
INCLINATION    = 98.8693
RA_OF_ASC_NODE = 315.0546
ARG_OF_PERICENTER = 301.3895
MEAN_ANOMALY   = 58.5054

EPHEMERIS_TYPE = 0
CLASSIFICATION_TYPE = U
NORAD_CAT_ID   = 43682
ELEMENT_SET_NO = 999
REV_AT_EPOCH   = 40945
BSTAR          = .60582543E-3
MEAN_MOTION_DOT = .26368E-3
MEAN_MOTION_DDOT = 0

CCSDS_OMM_VERS = 2.0
CREATION_DATE  = 
ORIGINATOR     = 

OBJECT_NAME    = SAOCOM 1B
OBJECT_ID      = 2020-059A
CENTER_NAME    = EARTH
REF_FRAME      = TEME
TIME_SYSTEM    = UTC
MEAN_ELEMENT_THEORY = SGP/SGP4

EPOCH          = 2026-04-02T19:48:43.885152
MEAN_MOTION    = 14.82150615
ECCENTRICITY   = .0001488
INCLINATION    = 97.8885
RA_OF_ASC_NODE = 279.7547
ARG_OF_PERICENTER = 84.5202
MEAN_ANOMALY   = 275.6180

EPHEMERIS_TYPE = 0
CLASSIFICATION_TYPE = U
NORAD_CAT_ID   = 46265
ELEMENT_SET_NO = 999
REV_AT_EPOCH   = 30232
BSTAR          = .18619E-3
MEAN_MOTION_DOT = .143E-4
MEAN_MOTION_DDOT = 0

CCSDS_OMM_VERS = 2.0
CREATION_DATE  = 
ORIGINATOR     = 

OBJECT_NAME    = CSS (TIANHE)
OBJECT_ID      = 2021-035A
CENTER_NAME    = EARTH
REF_FRAME      = TEME
TIME_SYSTEM    = UTC
MEAN_ELEMENT_THEORY = SGP/SGP4

EPOCH          = 2026-04-01T08:38:43.102176
MEAN_MOTION    = 15.61804306
ECCENTRICITY   = .00037219
INCLINATION    = 41.4670
RA_OF_ASC_NODE = 70.0996
ARG_OF_PERICENTER = 85.9086
MEAN_ANOMALY   = 274.2179

EPHEMERIS_TYPE = 0
CLASSIFICATION_TYPE = U
NORAD_CAT_ID   = 48274
ELEMENT_SET_NO = 999
REV_AT_EPOCH   = 28115
BSTAR          = .27286117E-3
MEAN_MOTION_DOT = .24066E-3
MEAN_MOTION_DDOT = 0

CCSDS_OMM_VERS = 2.0
CREATION_DATE  = 
ORIGINATOR     = 

OBJECT_NAME    = COSMOS 2550
OBJECT_ID      = 2021-056A
CENTER_NAME    = EARTH
REF_FRAME      = TEME
TIME_SYSTEM    = UTC
MEAN_ELEMENT_THEORY = SGP/SGP4

EPOCH          = 2026-04-01T11:17:21.715008
MEAN_MOTION    = 15.33839536
ECCENTRICITY   = .00083284
INCLINATION    = 67.1445
RA_OF_ASC_NODE = 331.9738
ARG_OF_PERICENTER = 269.3207
MEAN_ANOMALY   = 90.6993

EPHEMERIS_TYPE = 0
CLASSIFICATION_TYPE = U
NORAD_CAT_ID   = 48865
ELEMENT_SET_NO = 999
REV_AT_EPOCH   = 26695
BSTAR          = .17705072E-3
MEAN_MOTION_DOT = .5639E-4
MEAN_MOTION_DDOT = 0

CCSDS_OMM_VERS = 2.0
CREATION_DATE  = 
ORIGINATOR     = 

OBJECT_NAME    = CZ-2C R/B
OBJECT_ID      = 2022-058K
CENTER_NAME    = EARTH
REF_FRAME      = TEME
TIME_SYSTEM    = UTC
MEAN_ELEMENT_THEORY = SGP/SGP4

EPOCH          = 2026-04-02T16:08:25.744416
MEAN_MOTION    = 15.56112210
ECCENTRICITY   = .004127
INCLINATION    = 50.1881
RA_OF_ASC_NODE = 194.7552
ARG_OF_PERICENTER = 303.7949
MEAN_ANOMALY   = 55.9095

EPHEMERIS_TYPE = 0
CLASSIFICATION_TYPE = U
NORAD_CAT_ID   = 52794
ELEMENT_SET_NO = 999
REV_AT_EPOCH   = 21386
BSTAR          = .69661E-3
MEAN_MOTION_DOT = .51433E-3
MEAN_MOTION_DDOT = 0

CCSDS_OMM_VERS = 2.0
CREATION_DATE  = 
ORIGINATOR     = 

OBJECT_NAME    = CZ-2C R/B
OBJECT_ID      = 2022-132E
CENTER_NAME    = EARTH
REF_FRAME      = TEME
TIME_SYSTEM    = UTC
MEAN_ELEMENT_THEORY = SGP/SGP4

EPOCH          = 2026-04-02T18:21:07.481088
MEAN_MOTION    = 15.64161176
ECCENTRICITY   = .001638
INCLINATION    = 97.2951
RA_OF_ASC_NODE = 96.8533
ARG_OF_PERICENTER = 10.9620
MEAN_ANOMALY   = 349.1993

EPHEMERIS_TYPE = 0
CLASSIFICATION_TYPE = U
NORAD_CAT_ID   = 54039
ELEMENT_SET_NO = 999
REV_AT_EPOCH   = 19413
BSTAR          = .6474E-3
MEAN_MOTION_DOT = .62063E-3
MEAN_MOTION_DDOT = 0

CCSDS_OMM_VERS = 2.0
CREATION_DATE  = 
ORIGINATOR     = 

OBJECT_NAME    = GSLV R/B
OBJECT_ID      = 2022-138AN
CENTER_NAME    = EARTH
REF_FRAME      = TEME
TIME_SYSTEM    = UTC
MEAN_ELEMENT_THEORY = SGP/SGP4

EPOCH          = 2026-04-02T14:05:17.530944
MEAN_MOTION    = 14.96927290
ECCENTRICITY   = .00238585
INCLINATION    = 87.3852
RA_OF_ASC_NODE = 158.3612
ARG_OF_PERICENTER = 68.0421
MEAN_ANOMALY   = 292.3343

EPHEMERIS_TYPE = 0
CLASSIFICATION_TYPE = U
NORAD_CAT_ID   = 54149
ELEMENT_SET_NO = 999
REV_AT_EPOCH   = 18750
BSTAR          = .33832158E-3
MEAN_MOTION_DOT = .3934E-4
MEAN_MOTION_DDOT = 0

